CCSDS_OMM_VERS = 2.0
CREATION_DATE  = 
ORIGINATOR     = 

OBJECT_NAME    = SL-16 R/B
OBJECT_ID      = 1998-045B
CENTER_NAME    = EARTH
REF_FRAME      = TEME
TIME_SYSTEM    = UTC
MEAN_ELEMENT_THEORY = SGP/SGP4

EPOCH          = 2026-03-18T11:21:01.578816
MEAN_MOTION    = 14.16194741
ECCENTRICITY   = .00073421
INCLINATION    = 71.0120
RA_OF_ASC_NODE = 163.1046
ARG_OF_PERICENTER = 354.2052
MEAN_ANOMALY   = 5.8985

EPHEMERIS_TYPE = 0
CLASSIFICATION_TYPE = U
NORAD_CAT_ID   = 25407
ELEMENT_SET_NO = 999
REV_AT_EPOCH   = 42834
BSTAR          = .10103109E-3
MEAN_MOTION_DOT = .152E-5
MEAN_MOTION_DDOT = 0

CCSDS_OMM_VERS = 2.0
CREATION_DATE  = 
ORIGINATOR     = 

OBJECT_NAME    = ISS (ZARYA)
OBJECT_ID      = 1998-067A
CENTER_NAME    = EARTH
REF_FRAME      = TEME
TIME_SYSTEM    = UTC
MEAN_ELEMENT_THEORY = SGP/SGP4

EPOCH          = 2026-03-18T08:31:19.348320
MEAN_MOTION    = 15.48355497
ECCENTRICITY   = .00062405
INCLINATION    = 51.6340
RA_OF_ASC_NODE = 29.5200
ARG_OF_PERICENTER = 204.1942
MEAN_ANOMALY   = 155.8754

EPHEMERIS_TYPE = 0
CLASSIFICATION_TYPE = U
NORAD_CAT_ID   = 25544
ELEMENT_SET_NO = 999
REV_AT_EPOCH   = 55767
BSTAR          = .1519049E-3
MEAN_MOTION_DOT = .7746E-4
MEAN_MOTION_DDOT = 0

CCSDS_OMM_VERS = 2.0
CREATION_DATE  = 
ORIGINATOR     = 

OBJECT_NAME    = CZ-4B R/B
OBJECT_ID      = 1999-025C
CENTER_NAME    = EARTH
REF_FRAME      = TEME
TIME_SYSTEM    = UTC
MEAN_ELEMENT_THEORY = SGP/SGP4

EPOCH          = 2026-03-18T13:47:32.338176
MEAN_MOTION    = 14.18267128
ECCENTRICITY   = .00363115
INCLINATION    = 98.6607
RA_OF_ASC_NODE = 121.6451
ARG_OF_PERICENTER = 320.6960
MEAN_ANOMALY   = 203.2121

EPHEMERIS_TYPE = 0
CLASSIFICATION_TYPE = U
NORAD_CAT_ID   = 25732
ELEMENT_SET_NO = 999
REV_AT_EPOCH   = 38942
BSTAR          = .40101663E-4
MEAN_MOTION_DOT = .4E-6
MEAN_MOTION_DDOT = 0

CCSDS_OMM_VERS = 2.0
CREATION_DATE  = 
ORIGINATOR     = 

OBJECT_NAME    = OKEAN-O
OBJECT_ID      = 1999-039A
CENTER_NAME    = EARTH
REF_FRAME      = TEME
TIME_SYSTEM    = UTC
MEAN_ELEMENT_THEORY = SGP/SGP4

EPOCH          = 2026-03-18T13:46:55.529184
MEAN_MOTION    = 14.80349812
ECCENTRICITY   = .0001018
INCLINATION    = 97.9422
RA_OF_ASC_NODE = 137.3747
ARG_OF_PERICENTER = 75.0124
MEAN_ANOMALY   = 285.1201

EPHEMERIS_TYPE = 0
CLASSIFICATION_TYPE = U
NORAD_CAT_ID   = 25860
ELEMENT_SET_NO = 999
REV_AT_EPOCH   = 43570
BSTAR          = .88399486E-4
MEAN_MOTION_DOT = .622E-5
MEAN_MOTION_DDOT = 0

CCSDS_OMM_VERS = 2.0
CREATION_DATE  = 
ORIGINATOR     = 

OBJECT_NAME    = SL-16 R/B
OBJECT_ID      = 1999-039B
CENTER_NAME    = EARTH
REF_FRAME      = TEME
TIME_SYSTEM    = UTC
MEAN_ELEMENT_THEORY = SGP/SGP4

EPOCH          = 2026-03-18T14:43:08.139360
MEAN_MOTION    = 14.81743712
ECCENTRICITY   = .0013834
INCLINATION    = 97.9945
RA_OF_ASC_NODE = 136.6958
ARG_OF_PERICENTER = 224.7127
MEAN_ANOMALY   = 135.2972

EPHEMERIS_TYPE = 0
CLASSIFICATION_TYPE = U
NORAD_CAT_ID   = 25861
ELEMENT_SET_NO = 999
REV_AT_EPOCH   = 43818
BSTAR          = .73077134E-4
MEAN_MOTION_DOT = .523E-5
MEAN_MOTION_DDOT = 0

CCSDS_OMM_VERS = 2.0
CREATION_DATE  = 
ORIGINATOR     = 

OBJECT_NAME    = DELTA 2 R/B
OBJECT_ID      = 1999-041E
CENTER_NAME    = EARTH
REF_FRAME      = TEME
TIME_SYSTEM    = UTC
MEAN_ELEMENT_THEORY = SGP/SGP4

EPOCH          = 2026-03-18T12:04:30.215136
MEAN_MOTION    = 14.11862228
ECCENTRICITY   = .05025796
INCLINATION    = 51.7610
RA_OF_ASC_NODE = 266.0749
ARG_OF_PERICENTER = 14.4288
MEAN_ANOMALY   = 347.0412

EPHEMERIS_TYPE = 0
CLASSIFICATION_TYPE = U
NORAD_CAT_ID   = 25876
ELEMENT_SET_NO = 999
REV_AT_EPOCH   = 36427
BSTAR          = .15027652E-3
MEAN_MOTION_DOT = .69E-5
MEAN_MOTION_DDOT = 0

CCSDS_OMM_VERS = 2.0
CREATION_DATE  = 
ORIGINATOR     = 

OBJECT_NAME    = HELIOS 1B
OBJECT_ID      = 1999-064A
CENTER_NAME    = EARTH
REF_FRAME      = TEME
TIME_SYSTEM    = UTC
MEAN_ELEMENT_THEORY = SGP/SGP4

EPOCH          = 2026-03-18T15:49:11.659872
MEAN_MOTION    = 14.87733817
ECCENTRICITY   = .00022657
INCLINATION    = 98.1686
RA_OF_ASC_NODE = 340.1658
ARG_OF_PERICENTER = 62.2411
MEAN_ANOMALY   = 297.9033

EPHEMERIS_TYPE = 0
CLASSIFICATION_TYPE = U
NORAD_CAT_ID   = 25977
ELEMENT_SET_NO = 999
REV_AT_EPOCH   = 68659
BSTAR          = .17619538E-3
MEAN_MOTION_DOT = .1548E-4
MEAN_MOTION_DDOT = 0

CCSDS_OMM_VERS = 2.0
CREATION_DATE  = 
ORIGINATOR     = 

OBJECT_NAME    = TERRA
OBJECT_ID      = 1999-068A
CENTER_NAME    = EARTH
REF_FRAME      = TEME
TIME_SYSTEM    = UTC
MEAN_ELEMENT_THEORY = SGP/SGP4

EPOCH          = 2026-03-18T15:15:18.255744
MEAN_MOTION    = 14.61024112
ECCENTRICITY   = .00032191
INCLINATION    = 97.9574
RA_OF_ASC_NODE = 130.7278
ARG_OF_PERICENTER = 132.0929
MEAN_ANOMALY   = 19.3018

EPHEMERIS_TYPE = 0
CLASSIFICATION_TYPE = U
NORAD_CAT_ID   = 25994
ELEMENT_SET_NO = 999
REV_AT_EPOCH   = 39638
BSTAR          = .86132301E-4
MEAN_MOTION_DOT = .378E-5
MEAN_MOTION_DDOT = 0

CCSDS_OMM_VERS = 2.0
CREATION_DATE  = 
ORIGINATOR     = 

OBJECT_NAME    = SL-16 R/B
OBJECT_ID      = 2000-006B
CENTER_NAME    = EARTH
REF_FRAME      = TEME
TIME_SYSTEM    = UTC
MEAN_ELEMENT_THEORY = SGP/SGP4

EPOCH          = 2026-03-18T10:04:46.615008
MEAN_MOTION    = 14.15823842
ECCENTRICITY   = .00162902
INCLINATION    = 71.0003
RA_OF_ASC_NODE = 79.4786
ARG_OF_PERICENTER = 176.6543
MEAN_ANOMALY   = 183.4693

EPHEMERIS_TYPE = 0
CLASSIFICATION_TYPE = U
NORAD_CAT_ID   = 26070
ELEMENT_SET_NO = 999
REV_AT_EPOCH   = 34979
BSTAR          = -.51578126E-4
MEAN_MOTION_DOT = -.149E-5
MEAN_MOTION_DDOT = 0

CCSDS_OMM_VERS = 2.0
CREATION_DATE  = 
ORIGINATOR     = 

OBJECT_NAME    = TITAN 4B R/B
OBJECT_ID      = 2000-047B
CENTER_NAME    = EARTH
REF_FRAME      = TEME
TIME_SYSTEM    = UTC
MEAN_ELEMENT_THEORY = SGP/SGP4

EPOCH          = 2026-03-18T10:36:57.469248
MEAN_MOTION    = 15.09648496
ECCENTRICITY   = .00389529
INCLINATION    = 67.9911
RA_OF_ASC_NODE = 15.8966
ARG_OF_PERICENTER = 25.0077
MEAN_ANOMALY   = 335.2948

EPHEMERIS_TYPE = 0
CLASSIFICATION_TYPE = U
NORAD_CAT_ID   = 26474
ELEMENT_SET_NO = 999
REV_AT_EPOCH   = 39423
BSTAR          = .23417285E-3
MEAN_MOTION_DOT = .3708E-4
MEAN_MOTION_DDOT = 0

CCSDS_OMM_VERS = 2.0
CREATION_DATE  = 
ORIGINATOR     = 

OBJECT_NAME    = ENVISAT
OBJECT_ID      = 2002-009A
CENTER_NAME    = EARTH
REF_FRAME      = TEME
TIME_SYSTEM    = UTC
MEAN_ELEMENT_THEORY = SGP/SGP4

EPOCH          = 2026-03-18T14:28:40.489824
MEAN_MOTION    = 14.39040099
ECCENTRICITY   = .00013056
INCLINATION    = 98.3743
RA_OF_ASC_NODE = 30.9891
ARG_OF_PERICENTER = 82.3701
MEAN_ANOMALY   = 91.2033

EPHEMERIS_TYPE = 0
CLASSIFICATION_TYPE = U
NORAD_CAT_ID   = 27386
ELEMENT_SET_NO = 999
REV_AT_EPOCH   = 26045
BSTAR          = .4722427E-4
MEAN_MOTION_DOT = .103E-5
MEAN_MOTION_DDOT = 0

CCSDS_OMM_VERS = 2.0
CREATION_DATE  = 
ORIGINATOR     = 

OBJECT_NAME    = IDEFIX & ARIANE 42P R/B
OBJECT_ID      = 2002-021B
CENTER_NAME    = EARTH
REF_FRAME      = TEME
TIME_SYSTEM    = UTC
MEAN_ELEMENT_THEORY = SGP/SGP4

EPOCH          = 2026-03-18T14:03:01.901088
MEAN_MOTION    = 14.31032185
ECCENTRICITY   = .00120904
INCLINATION    = 98.5880
RA_OF_ASC_NODE = 16.0859
ARG_OF_PERICENTER = 156.1230
MEAN_ANOMALY   = 204.0516

EPHEMERIS_TYPE = 0
CLASSIFICATION_TYPE = U
NORAD_CAT_ID   = 27422
ELEMENT_SET_NO = 999
REV_AT_EPOCH   = 24529
BSTAR          = .10999366E-3
MEAN_MOTION_DOT = .246E-5
MEAN_MOTION_DDOT = 0

