SL-16 R/B               
1 25407U 98045B   26077.47293494  .00000152  00000+0  10103-3 0  9993
2 25407  71.0120 163.1046 0007342 354.2052   5.8985 14.16194741428343
ISS (ZARYA)             
1 25544U 98067A   26077.35508505  .00007746  00000+0  15190-3 0  9995
2 25544  51.6340  29.5200 0006240 204.1942 155.8754 15.48355497557679
CZ-4B R/B               
1 25732U 99025C   26077.57467984  .00000040  00000+0  40102-4 0  9990
2 25732  98.6607 121.6451 0036311 320.6960 203.2121 14.18267128389424
OKEAN-O                 
1 25860U 99039A   26077.57425381  .00000622  00000+0  88399-4 0  9998
2 25860  97.9422 137.3747 0001018  75.0124 285.1201 14.80349812435705
SL-16 R/B               
1 25861U 99039B   26077.61328865  .00000523  00000+0  73077-4 0  9990
2 25861  97.9945 136.6958 0013834 224.7127 135.2972 14.81743712438180
DELTA 2 R/B             
1 25876U 99041E   26077.50312749  .00000690  00000+0  15028-3 0  9997
2 25876  51.7610 266.0749 0502579  14.4288 347.0412 14.11862228364277
HELIOS 1B               
1 25977U 99064A   26077.65916273  .00001548  00000+0  17620-3 0  9995
2 25977  98.1686 340.1658 0002265  62.2411 297.9033 14.87733817686594
TERRA                   
1 25994U 99068A   26077.63562796  .00000378  00000+0  86132-4 0  9998
2 25994  97.9574 130.7278 0003219 132.0929  19.3018 14.61024112396384
SL-16 R/B               
1 26070U 00006B   26077.41998397 -.00000149  00000+0 -51578-4 0  9998
2 26070  71.0003  79.4786 0016290 176.6543 183.4693 14.15823842349793
TITAN 4B R/B            
1 26474U 00047B   26077.44233182  .00003708  00000+0  23417-3 0  9990
2 26474  67.9911  15.8966 0038952  25.0077 335.2948 15.09648496394238
ENVISAT                 
1 27386U 02009A   26077.60324641  .00000103  00000+0  47224-4 0  9991
2 27386  98.3743  30.9891 0001305  82.3701  91.2033 14.39040099260456
IDEFIX & ARIANE 42P R/B 
1 27422U 02021B   26077.58543867  .00000246  00000+0  10999-3 0  9992
2 27422  98.5880  16.0859 0012090 156.1230 204.0516 14.31032185245294
